{
    "satellites": [
        {
            "name": "starlink299",
            "title": "Starlink-299 (G17-10) (new)",
            "tle": [
                "1 70185C 25207D   25261.72201389 -.01098500  00000+0 -27329-2 0  2616",
                "2 70185  97.6024 323.2133 0001346  59.7455 293.3218 15.96965144    16"
            ],
            "stdMag": 5,
            "noradId": "70185",
            "tleUrl": "http://celestrak.org/NORAD/elements/supplemental/sup-gp.php?FILE=starlink&FORMAT=tle",
            "launchDate": "2025-09-13T17:55:49.000Z",
            "active": true,
            "batch": [
                {
                    "noradId": "70172",
                    "tle": [
                        "1 70172C 25200Q   25261.73381944 -.00999900  00000+0 -36777-2 0  2612",
                        "2 70172  97.5999 326.9453 0001384  72.0553 212.7602 15.89266556    11"
                    ]
                }
            ]
        },
        {
            "name": "starlink298",
            "title": "Starlink-298 (G17-9)",
            "tle": [
                "1 70181C 25200Z   25261.73520833 -.01072000  00000+0 -39554-2 0  2614",
                "2 70181  97.6000 326.9587 0001315  74.3961 245.5020 15.89277670    12"
            ],
            "stdMag": 5,
            "noradId": "70181",
            "tleUrl": "http://celestrak.org/NORAD/elements/supplemental/sup-gp.php?FILE=starlink&FORMAT=tle",
            "launchDate": "2025-09-06T18:06:39.000Z",
            "active": true,
            "batch": [
                {
                    "noradId": "70181",
                    "tle": [
                        "1 70181C 25200Z   25261.73520833 -.01072000  00000+0 -39554-2 0  2614",
                        "2 70181  97.6000 326.9587 0001315  74.3961 245.5020 15.89277670    12"
                    ]
                },
                {
                    "noradId": "70179",
                    "tle": [
                        "1 70179C 25200X   25261.73243056 -.01064400  00000+0 -39259-2 0  2617",
                        "2 70179  97.6004 326.9546 0001362  74.9119 226.3362 15.89276772    19"
                    ]
                },
                {
                    "noradId": "70180",
                    "tle": [
                        "1 70180C 25200Y   25261.73659722 -.01055700  00000+0 -38935-2 0  2613",
                        "2 70180  97.6001 326.9572 0001296  76.3453 245.6061 15.89268687    16"
                    ]
                },
                {
                    "noradId": "70178",
                    "tle": [
                        "1 70178C 25200W   25261.74076389 -.01046400  00000+0 -38575-2 0  2610",
                        "2 70178  97.5999 326.9606 0001325  73.3705 268.9235 15.89267827    12"
                    ]
                },
                {
                    "noradId": "70177",
                    "tle": [
                        "1 70177C 25200V   25261.74006944 -.01037400  00000+0 -38221-2 0  2617",
                        "2 70177  97.6001 326.9585 0001333  71.9160 263.2131 15.89271100    12"
                    ]
                },
                {
                    "noradId": "70176",
                    "tle": [
                        "1 70176C 25200U   25261.73243056 -.01031500  00000+0 -37970-2 0  2617",
                        "2 70176  97.5999 326.9483 0001370  73.3209 215.3604 15.89282068    12"
                    ]
                },
                {
                    "noradId": "70175",
                    "tle": [
                        "1 70175C 25200T   25261.74076389 -.01018500  00000+0 -37533-2 0  2610",
                        "2 70175  97.5998 326.9566 0001300  69.9572 263.5647 15.89247354    10"
                    ]
                },
                {
                    "noradId": "70174",
                    "tle": [
                        "1 70174C 25200S   25261.74076389 -.01015500  00000+0 -37398-2 0  2615",
                        "2 70174  97.5996 326.9552 0001342  70.1217 260.3498 15.89257732    18"
                    ]
                },
                {
                    "noradId": "70173",
                    "tle": [
                        "1 70173C 25200R   25261.73381944 -.01006400  00000+0 -37013-2 0  2612",
                        "2 70173  97.5998 326.9463 0001353  75.8968 211.6130 15.89273951    10"
                    ]
                },
                {
                    "noradId": "70172",
                    "tle": [
                        "1 70172C 25200Q   25261.73381944 -.00999900  00000+0 -36777-2 0  2612",
                        "2 70172  97.5999 326.9453 0001384  72.0553 212.7602 15.89266556    11"
                    ]
                },
                {
                    "noradId": "70171",
                    "tle": [
                        "1 70171C 25200P   25261.73937500 -.00991770  00000+0 -36481-2 0  2615",
                        "2 70171  97.5999 326.9505 0001355  71.5086 241.8969 15.89256140    18"
                    ]
                },
                {
                    "noradId": "70170",
                    "tle": [
                        "1 70170C 25200N   25261.73312500 -.00975440  00000+0 -35838-2 0  2612",
                        "2 70170  97.5992 326.9405 0001421  74.2007 197.4171 15.89263026    18"
                    ]
                },
                {
                    "noradId": "70169",
                    "tle": [
                        "1 70169C 25200M   25261.73451389 -.00983410  00000+0 -36147-2 0  2619",
                        "2 70169  97.6001 326.9438 0001344  78.7826 203.8339 15.89262316    15"
                    ]
                },
                {
                    "noradId": "70167",
                    "tle": [
                        "1 70167C 25200K   25261.73520833 -.00956460  00000+0 -35115-2 0  2617",
                        "2 70167  97.5996 326.9407 0001361  74.4318 202.6316 15.89258358    12"
                    ]
                },
                {
                    "noradId": "70168",
                    "tle": [
                        "1 70168C 25200L   25261.73937500 -.00966380  00000+0 -35506-2 0  2617",
                        "2 70168  97.5993 326.9466 0001361  68.8458 235.1915 15.89253034    19"
                    ]
                },
                {
                    "noradId": "70166",
                    "tle": [
                        "1 70166C 25200J   25261.73937500 -.00945050  00000+0 -34705-2 0  2616",
                        "2 70166  97.5993 326.9438 0001336  72.0334 225.8441 15.89241418    11"
                    ]
                },
                {
                    "noradId": "70165",
                    "tle": [
                        "1 70165C 25200H   25261.73729167 -.00929470  00000+0 -34115-2 0  2616",
                        "2 70165  97.5992 326.9402 0001357  72.0587 210.7043 15.89235555    19"
                    ]
                },
                {
                    "noradId": "70164",
                    "tle": [
                        "1 70164C 25200G   25261.73729167 -.00918610  00000+0 -33733-2 0  2614",
                        "2 70164  97.5994 326.9395 0001361  70.3137 210.0500 15.89214468    19"
                    ]
                },
                {
                    "noradId": "70163",
                    "tle": [
                        "1 70163C 25200F   25261.73451389 -.00900120  00000+0 -33040-2 0  2619",
                        "2 70163  97.5990 326.9352 0001408  70.4369 190.8840 15.89203252    18"
                    ]
                },
                {
                    "noradId": "70162",
                    "tle": [
                        "1 70162C 25200E   25261.73381944 -.00880640  00000+0 -32322-2 0  2613",
                        "2 70162  97.5991 326.9329 0001416  70.9214 183.1698 15.89185210    14"
                    ]
                },
                {
                    "noradId": "70160",
                    "tle": [
                        "1 70160C 25200C   25261.73173611 -.00867640  00000+0 -31849-2 0  2619",
                        "2 70160  97.5991 326.9293 0001418  72.8941 166.4413 15.89169369    18"
                    ]
                },
                {
                    "noradId": "70161",
                    "tle": [
                        "1 70161C 25200D   25261.73520833 -.00859580  00000+0 -31576-2 0  2613",
                        "2 70161  97.5984 326.9316 0001381  71.2131 185.2789 15.89145854    18"
                    ]
                },
                {
                    "noradId": "70159",
                    "tle": [
                        "1 70159C 25200B   25261.73937500 -.00849640  00000+0 -31224-2 0  2619",
                        "2 70159  97.5991 326.9356 0001337  70.6761 206.2469 15.89127177    17"
                    ]
                },
                {
                    "noradId": "70158",
                    "tle": [
                        "1 70158C 25200A   25261.73937500 -.00845480  00000+0 -31090-2 0  2617",
                        "2 70158  97.5995 326.9356 0001345  69.3129 205.2935 15.89110536    10"
                    ]
                }
            ]
        }
    ],
    "config": {}
}